[{"OBJECT_NAME":"STARLINK-5019","OBJECT_ID":"2023-014S","EPOCH":"2026-03-09T10:12:41.700960","MEAN_MOTION":14.98345014,"ECCENTRICITY":0.00039359,"INCLINATION":69.9993,"RA_OF_ASC_NODE":65.2133,"ARG_OF_PERICENTER":271.9946,"MEAN_ANOMALY":88.0763,"EPHEMERIS_TYPE":0,"CLASSIFICATION_TYPE":"U","NORAD_CAT_ID":55407,"ELEMENT_SET_NO":999,"REV_AT_EPOCH":17201,"BSTAR":0.00010961402,"MEAN_MOTION_DOT":1.216e-5,"MEAN_MOTION_DDOT":0},{"OBJECT_NAME":"ICEYE-X40","OBJECT_ID":"2024-149CK","EPOCH":"2026-03-09T18:13:16.348800","MEAN_MOTION":14.97556326,"ECCENTRICITY":0.00059832,"INCLINATION":97.6865,"RA_OF_ASC_NODE":146.8579,"ARG_OF_PERICENTER":65.2061,"MEAN_ANOMALY":294.9783,"EPHEMERIS_TYPE":0,"CLASSIFICATION_TYPE":"U","NORAD_CAT_ID":60549,"ELEMENT_SET_NO":999,"REV_AT_EPOCH":8519,"BSTAR":0.00028351559,"MEAN_MOTION_DOT":3.253e-5,"MEAN_MOTION_DDOT":0}]
